LEMUR-2-CHANUSIAK       
1 43697U 18088H   19023.17465731  .00001111  00000-0  48748-4 0  9992
2 43697  85.0367  54.8572 0016637  14.0635 346.1066 15.20596790 11106
LEMUR-2-ORZULAK         
1 43731U 18096N   19023.70120071  .00001403  00000-0  55864-4 0  9995
2 43731  97.4794  93.7928 0022650 128.3121 357.1492 15.26750056  8467
LEMUR-2-KOBYSZCZE       
1 43732U 18096P   19023.69851587  .00001580  00000-0  62406-4 0  9993
2 43732  97.4801  93.7966 0022936 129.3541 354.0496 15.26819444  8460
LEMUR-2-DULY            
1 43745U 18096AC  19023.69633078  .00001697  00000-0  66923-4 0  9997
2 43745  97.4785  93.7877 0022815 128.9425 330.3732 15.26753669  8475
LEMUR-2-VLADIMIR        
1 43746U 18096AD  19023.69395984  .00001789  00000-0  70234-4 0  9991
2 43746  97.4786  93.7899 0022864 129.4111 330.8877 15.26833779  8491
LEMUR-2-CHRISTINAHOLT   
1 43882U 18111G   19022.96212423  .00001252  00000-0  11570-3 0  9997
2 43882  97.7283 293.0488 0012453 148.0132 212.1848 14.96329299  4005
LEMUR-2-TINYKEV         
1 43883U 18111H   19023.49627660  .00001287  00000-0  11868-3 0  9998
2 43883  97.7287 293.5793 0012423 146.1661 214.0356 14.96375031  2094
LEMUR-2-REMY-COLTON     
1 43884U 18111J   19023.49562371  .00000936  00000-0  87641-4 0  9999
2 43884  97.7289 293.5813 0012466 146.4180 213.7834 14.96403368  2098
LEMUR-2-GUSTAVO         
1 43885U 18111K   19022.95953617  .00000896  00000-0  83956-4 0  9997
2 43885  97.7291 293.0555 0012303 147.5226 212.6755 14.96467972  4007
LEMUR-2-ZO              
1 43886U 18111L   19022.95807507  .00000935  00000-0  87185-4 0  9996
2 43886  97.7295 293.0589 0012277 146.9309 213.2682 14.96548709  4008
LEMUR-2-NATALIEMURRAY   
1 43887U 18111M   19022.95649956  .00001000  00000-0  92675-4 0  9993
2 43887  97.7294 293.0612 0012238 145.7979 214.4033 14.96638545  4003
LEMUR-2-SARAHBETTYBOO   
1 43888U 18111N   19023.69089121  .00001286  00000-0  11758-3 0  9996
2 43888  97.7301 293.7916 0012314 142.8430 217.3646 14.96700606  4114
LEMUR-2-DAISY-HARPER    
1 43889U 18111P   19023.68997145  .00001188  00000-0  10888-3 0  9994
2 43889  97.7299 293.7928 0012400 142.4379 217.7711 14.96748865  4103
